[{"OBJECT_NAME":"STARLINK-6285","OBJECT_ID":"2023-061AH","EPOCH":"2026-03-09T15:06:52.329312","MEAN_MOTION":15.02532975,"ECCENTRICITY":0.000112,"INCLINATION":43.0023,"RA_OF_ASC_NODE":184.9675,"ARG_OF_PERICENTER":267.3012,"MEAN_ANOMALY":92.7702,"EPHEMERIS_TYPE":0,"CLASSIFICATION_TYPE":"U","NORAD_CAT_ID":56405,"ELEMENT_SET_NO":999,"REV_AT_EPOCH":15689,"BSTAR":3.4063191e-5,"MEAN_MOTION_DOT":2.57e-6,"MEAN_MOTION_DDOT":0},{"OBJECT_NAME":"PEGASUS R\/B","OBJECT_ID":"2019-068B","EPOCH":"2026-03-09T22:22:48.049248","MEAN_MOTION":15.04682366,"ECCENTRICITY":0.00118062,"INCLINATION":26.9924,"RA_OF_ASC_NODE":328.8145,"ARG_OF_PERICENTER":174.3111,"MEAN_ANOMALY":185.7586,"EPHEMERIS_TYPE":0,"CLASSIFICATION_TYPE":"U","NORAD_CAT_ID":44629,"ELEMENT_SET_NO":999,"REV_AT_EPOCH":35103,"BSTAR":0.00027730034,"MEAN_MOTION_DOT":4.233e-5,"MEAN_MOTION_DDOT":0}]
